[{"OBJECT_NAME":"KUIPER-00187","OBJECT_ID":"2025-301J","EPOCH":"2026-03-09T23:31:50.478240","MEAN_MOTION":14.79912825,"ECCENTRICITY":6.188e-5,"INCLINATION":51.9028,"RA_OF_ASC_NODE":79.3379,"ARG_OF_PERICENTER":81.4352,"MEAN_ANOMALY":278.6681,"EPHEMERIS_TYPE":0,"CLASSIFICATION_TYPE":"U","NORAD_CAT_ID":67141,"ELEMENT_SET_NO":999,"REV_AT_EPOCH":1356,"BSTAR":0.00060978293,"MEAN_MOTION_DOT":4.428e-5,"MEAN_MOTION_DDOT":0},{"OBJECT_NAME":"DELTA 1 DEB","OBJECT_ID":"1966-008E","EPOCH":"2026-03-09T13:31:28.940160","MEAN_MOTION":14.71562151,"ECCENTRICITY":0.0045126,"INCLINATION":97.8603,"RA_OF_ASC_NODE":188.0099,"ARG_OF_PERICENTER":266.9066,"MEAN_ANOMALY":92.6977,"EPHEMERIS_TYPE":0,"CLASSIFICATION_TYPE":"U","NORAD_CAT_ID":2154,"ELEMENT_SET_NO":999,"REV_AT_EPOCH":16436,"BSTAR":0.00029521,"MEAN_MOTION_DOT":1.813e-5,"MEAN_MOTION_DDOT":0}]
